0 IRIDIUM 33 DEB
1 34076U 97051CK  13282.79659872  .00002903  00000-0  66925-3 0  4542
2 34076 086.3400 104.4012 0056843 346.9442 072.6463 14.54023651245339
0 IRIDIUM 33 DEB
1 34076U 97051CK  13283.98620297  .00003574  00000-0  82481-3 0  4554
2 34076 086.3399 103.8794 0056800 342.8393 179.7183 14.54027590245502
0 IRIDIUM 33 DEB
1 34076U 97051CK  13285.48078176  .00003004  00000-0  69254-3 0  4566
2 34076 086.3395 103.2245 0056678 337.6457 083.2764 14.54036635245727
0 IRIDIUM 33 DEB
1 34076U 97051CK  13286.51134598  .00003063  00000-0  70614-3 0  4570
2 34076 086.3393 102.7728 0056683 334.0350 077.9498 14.54041934245872
0 IRIDIUM 33 DEB
1 34076U 97051CK  13287.82135541  .00004521  00000-0  10444-2 0  4589
2 34076 086.3392 102.1984 0056433 329.5559 095.3519 14.54051534246069
0 IRIDIUM 33 DEB
1 34076U 97051CK  13288.93393123  .00005146  00000-0  11893-2 0  4598
2 34076 086.3390 101.7107 0056407 325.7513 159.3081 14.54060668246229
0 IRIDIUM 33 DEB
1 34076U 97051CK  13290.42947762  .00005191  00000-0  11995-2 0  4604
2 34076 086.3392 101.0552 0056362 320.5328 068.1402 14.54072000246446
0 IRIDIUM 33 DEB
1 34076U 97051CK  13291.46182667  .00004471  00000-0  10323-2 0  4619
2 34076 086.3394 100.6025 0056340 316.9340 072.2769 14.54080140246599
0 IRIDIUM 33 DEB
1 34076U 97051CK  13292.99390588  .00004360  00000-0  10064-2 0  4621
2 34076 086.3401 099.9308 0056215 311.6135 172.4369 14.54091910246818
0 IRIDIUM 33 DEB
1 34076U 97051CK  13294.49564605  .00006019  00000-0  13906-2 0  4633
2 34076 086.3406 099.2725 0056276 306.3271 113.9149 14.54103658247032
0 IRIDIUM 33 DEB
1 34076U 97051CK  13295.95301816  .00006010  00000-0  13880-2 0  4641
2 34076 086.3408 098.6338 0056353 301.2415 183.1494 14.54117725247242
